{"type":"FeatureCollection","meta":{"name":"España overview offline (enriquecido)","coverage":"Península + Baleares + Canarias: capitales, ciudades, pueblos clave CyL, aeropuertos/puertos, CCAA, ríos y corredores A/AP esquemáticos. SIN red de calles (vista país / zoom 5–10). Calles detalladas: pack Valladolid.","zoom_hint":"5–10","honest_limit":"No hay calles de todo el país embebidas (peso móvil). Los corredores A/AP son esquemas de orientación, no geometría OSM completa.","attribution":"© OpenStreetMap contributors · ODbL (coordenadas de referencia / esquema propio Les vencimos)"},"features":[{"type":"Feature","properties":{"name":"A Coruña","place":"city"},"geometry":{"type":"Point","coordinates":[-8.4115,43.3623]}},{"type":"Feature","properties":{"name":"Albacete","place":"city"},"geometry":{"type":"Point","coordinates":[-1.8585,38.9943]}},{"type":"Feature","properties":{"name":"Alicante","place":"city"},"geometry":{"type":"Point","coordinates":[-0.481,38.3452]}},{"type":"Feature","properties":{"name":"Almería","place":"city"},"geometry":{"type":"Point","coordinates":[-2.4637,36.834]}},{"type":"Feature","properties":{"name":"Ávila","place":"city"},"geometry":{"type":"Point","coordinates":[-4.6812,40.6566]}},{"type":"Feature","properties":{"name":"Badajoz","place":"city"},"geometry":{"type":"Point","coordinates":[-6.9707,38.8794]}},{"type":"Feature","properties":{"name":"Barcelona","place":"city"},"geometry":{"type":"Point","coordinates":[2.1686,41.3874]}},{"type":"Feature","properties":{"name":"Bilbao","place":"city"},"geometry":{"type":"Point","coordinates":[-2.935,43.263]}},{"type":"Feature","properties":{"name":"Burgos","place":"city"},"geometry":{"type":"Point","coordinates":[-3.6969,42.3439]}},{"type":"Feature","properties":{"name":"Cáceres","place":"city"},"geometry":{"type":"Point","coordinates":[-6.3724,39.4753]}},{"type":"Feature","properties":{"name":"Cádiz","place":"city"},"geometry":{"type":"Point","coordinates":[-6.2886,36.5271]}},{"type":"Feature","properties":{"name":"Castellón de la Plana","place":"city"},"geometry":{"type":"Point","coordinates":[-0.0513,39.9864]}},{"type":"Feature","properties":{"name":"Ciudad Real","place":"city"},"geometry":{"type":"Point","coordinates":[-3.9274,38.9848]}},{"type":"Feature","properties":{"name":"Córdoba","place":"city"},"geometry":{"type":"Point","coordinates":[-4.7794,37.8882]}},{"type":"Feature","properties":{"name":"Cuenca","place":"city"},"geometry":{"type":"Point","coordinates":[-2.1374,40.0704]}},{"type":"Feature","properties":{"name":"Girona","place":"city"},"geometry":{"type":"Point","coordinates":[2.8214,41.9794]}},{"type":"Feature","properties":{"name":"Granada","place":"city"},"geometry":{"type":"Point","coordinates":[-3.5986,37.1773]}},{"type":"Feature","properties":{"name":"Guadalajara","place":"city"},"geometry":{"type":"Point","coordinates":[-3.1665,40.6322]}},{"type":"Feature","properties":{"name":"Huelva","place":"city"},"geometry":{"type":"Point","coordinates":[-6.9447,37.2614]}},{"type":"Feature","properties":{"name":"Huesca","place":"city"},"geometry":{"type":"Point","coordinates":[-0.4087,42.1401]}},{"type":"Feature","properties":{"name":"Jaén","place":"city"},"geometry":{"type":"Point","coordinates":[-3.7849,37.7796]}},{"type":"Feature","properties":{"name":"Las Palmas de Gran Canaria","place":"city"},"geometry":{"type":"Point","coordinates":[-15.4366,28.1235]}},{"type":"Feature","properties":{"name":"León","place":"city"},"geometry":{"type":"Point","coordinates":[-5.5671,42.5987]}},{"type":"Feature","properties":{"name":"Lleida","place":"city"},"geometry":{"type":"Point","coordinates":[0.62,41.6176]}},{"type":"Feature","properties":{"name":"Logroño","place":"city"},"geometry":{"type":"Point","coordinates":[-2.4449,42.4627]}},{"type":"Feature","properties":{"name":"Lugo","place":"city"},"geometry":{"type":"Point","coordinates":[-7.5568,43.0097]}},{"type":"Feature","properties":{"name":"Madrid","place":"city"},"geometry":{"type":"Point","coordinates":[-3.7038,40.4168]}},{"type":"Feature","properties":{"name":"Málaga","place":"city"},"geometry":{"type":"Point","coordinates":[-4.4214,36.7213]}},{"type":"Feature","properties":{"name":"Murcia","place":"city"},"geometry":{"type":"Point","coordinates":[-1.1307,37.9922]}},{"type":"Feature","properties":{"name":"Ourense","place":"city"},"geometry":{"type":"Point","coordinates":[-7.8639,42.3358]}},{"type":"Feature","properties":{"name":"Oviedo","place":"city"},"geometry":{"type":"Point","coordinates":[-5.8494,43.3614]}},{"type":"Feature","properties":{"name":"Palencia","place":"city"},"geometry":{"type":"Point","coordinates":[-4.5288,42.0096]}},{"type":"Feature","properties":{"name":"Palma","place":"city"},"geometry":{"type":"Point","coordinates":[2.6502,39.5696]}},{"type":"Feature","properties":{"name":"Pamplona","place":"city"},"geometry":{"type":"Point","coordinates":[-1.6458,42.8125]}},{"type":"Feature","properties":{"name":"Pontevedra","place":"city"},"geometry":{"type":"Point","coordinates":[-8.6444,42.431]}},{"type":"Feature","properties":{"name":"Salamanca","place":"city"},"geometry":{"type":"Point","coordinates":[-5.6635,40.9701]}},{"type":"Feature","properties":{"name":"Donostia / San Sebastián","place":"city"},"geometry":{"type":"Point","coordinates":[-1.9812,43.3183]}},{"type":"Feature","properties":{"name":"Santa Cruz de Tenerife","place":"city"},"geometry":{"type":"Point","coordinates":[-16.2518,28.4636]}},{"type":"Feature","properties":{"name":"Santander","place":"city"},"geometry":{"type":"Point","coordinates":[-3.8099,43.4623]}},{"type":"Feature","properties":{"name":"Segovia","place":"city"},"geometry":{"type":"Point","coordinates":[-4.1088,40.9429]}},{"type":"Feature","properties":{"name":"Sevilla","place":"city"},"geometry":{"type":"Point","coordinates":[-5.9845,37.3891]}},{"type":"Feature","properties":{"name":"Soria","place":"city"},"geometry":{"type":"Point","coordinates":[-2.4649,41.7636]}},{"type":"Feature","properties":{"name":"Tarragona","place":"city"},"geometry":{"type":"Point","coordinates":[1.2445,41.1189]}},{"type":"Feature","properties":{"name":"Teruel","place":"city"},"geometry":{"type":"Point","coordinates":[-1.1065,40.3456]}},{"type":"Feature","properties":{"name":"Toledo","place":"city"},"geometry":{"type":"Point","coordinates":[-4.0273,39.8628]}},{"type":"Feature","properties":{"name":"Valencia","place":"city"},"geometry":{"type":"Point","coordinates":[-0.3763,39.4699]}},{"type":"Feature","properties":{"name":"Valladolid","place":"city"},"geometry":{"type":"Point","coordinates":[-4.7245,41.6523]}},{"type":"Feature","properties":{"name":"Vitoria-Gasteiz","place":"city"},"geometry":{"type":"Point","coordinates":[-2.6716,42.8467]}},{"type":"Feature","properties":{"name":"Zamora","place":"city"},"geometry":{"type":"Point","coordinates":[-5.7438,41.5035]}},{"type":"Feature","properties":{"name":"Zaragoza","place":"city"},"geometry":{"type":"Point","coordinates":[-0.8891,41.6488]}},{"type":"Feature","properties":{"name":"Ceuta","place":"city"},"geometry":{"type":"Point","coordinates":[-5.3213,35.8894]}},{"type":"Feature","properties":{"name":"Melilla","place":"city"},"geometry":{"type":"Point","coordinates":[-2.9381,35.2923]}},{"type":"Feature","properties":{"name":"Santiago de Compostela","place":"city"},"geometry":{"type":"Point","coordinates":[-8.5448,42.8782]}},{"type":"Feature","properties":{"name":"Gijón","place":"city"},"geometry":{"type":"Point","coordinates":[-5.6611,43.5322]}},{"type":"Feature","properties":{"name":"Vigo","place":"city"},"geometry":{"type":"Point","coordinates":[-8.7207,42.2406]}},{"type":"Feature","properties":{"name":"Elche","place":"city"},"geometry":{"type":"Point","coordinates":[-0.6982,38.2669]}},{"type":"Feature","properties":{"name":"Cartagena","place":"city"},"geometry":{"type":"Point","coordinates":[-0.9868,37.6056]}},{"type":"Feature","properties":{"name":"Jerez de la Frontera","place":"city"},"geometry":{"type":"Point","coordinates":[-6.137,36.6866]}},{"type":"Feature","properties":{"name":"Marbella","place":"city"},"geometry":{"type":"Point","coordinates":[-4.8824,36.5101]}},{"type":"Feature","properties":{"name":"Algeciras","place":"city"},"geometry":{"type":"Point","coordinates":[-5.4562,36.1408]}},{"type":"Feature","properties":{"name":"Alcalá de Henares","place":"city"},"geometry":{"type":"Point","coordinates":[-3.3638,40.4817]}},{"type":"Feature","properties":{"name":"Fuenlabrada","place":"city"},"geometry":{"type":"Point","coordinates":[-3.7947,40.2842]}},{"type":"Feature","properties":{"name":"Leganés","place":"city"},"geometry":{"type":"Point","coordinates":[-3.7635,40.3272]}},{"type":"Feature","properties":{"name":"Getafe","place":"city"},"geometry":{"type":"Point","coordinates":[-3.7327,40.3057]}},{"type":"Feature","properties":{"name":"Mostoles","place":"city"},"geometry":{"type":"Point","coordinates":[-3.8649,40.3223]}},{"type":"Feature","properties":{"name":"San Cristóbal de La Laguna","place":"city"},"geometry":{"type":"Point","coordinates":[-16.3159,28.4874]}},{"type":"Feature","properties":{"name":"Puerto del Rosario","place":"city"},"geometry":{"type":"Point","coordinates":[-13.8627,28.5004]}},{"type":"Feature","properties":{"name":"Arrecife","place":"city"},"geometry":{"type":"Point","coordinates":[-13.5477,28.963]}},{"type":"Feature","properties":{"name":"Mahón","place":"city"},"geometry":{"type":"Point","coordinates":[4.2644,39.889]}},{"type":"Feature","properties":{"name":"Ibiza","place":"city"},"geometry":{"type":"Point","coordinates":[1.4206,38.9067]}},{"type":"Feature","properties":{"name":"Benidorm","place":"city"},"geometry":{"type":"Point","coordinates":[-0.13,38.5417]}},{"type":"Feature","properties":{"name":"Torrevieja","place":"city"},"geometry":{"type":"Point","coordinates":[-0.6822,37.9787]}},{"type":"Feature","properties":{"name":"Ponferrada","place":"city"},"geometry":{"type":"Point","coordinates":[-6.5961,42.5461]}},{"type":"Feature","properties":{"name":"Miranda de Ebro","place":"city"},"geometry":{"type":"Point","coordinates":[-2.947,42.6865]}},{"type":"Feature","properties":{"name":"Aranda de Duero","place":"city"},"geometry":{"type":"Point","coordinates":[-3.6891,41.6705]}},{"type":"Feature","properties":{"name":"Medina del Campo","place":"city"},"geometry":{"type":"Point","coordinates":[-4.9146,41.3124]}},{"type":"Feature","properties":{"name":"Tordesillas","place":"city"},"geometry":{"type":"Point","coordinates":[-5.0005,41.5017]}},{"type":"Feature","properties":{"name":"Peñafiel","place":"city"},"geometry":{"type":"Point","coordinates":[-4.123,41.5975]}},{"type":"Feature","properties":{"name":"Península (esquema)","kind":"outline"},"geometry":{"type":"Polygon","coordinates":[[[-7.0,43.7],[-1.8,43.5],[0.7,42.8],[3.3,42.4],[3.2,41.8],[1.5,41.2],[0.5,40.5],[-0.3,39.4],[-0.5,38.0],[-1.2,37.0],[-2.0,36.7],[-4.5,36.6],[-5.5,36.0],[-6.0,36.2],[-7.0,37.0],[-7.4,37.2],[-7.5,38.5],[-7.0,39.5],[-7.0,41.0],[-8.5,42.0],[-9.0,42.5],[-8.5,43.3],[-7.0,43.7]]]}},{"type":"Feature","properties":{"name":"Baleares (esquema)","kind":"outline"},"geometry":{"type":"Polygon","coordinates":[[[2.3,39.9],[3.5,39.9],[4.3,39.7],[3.2,39.1],[2.4,39.3],[1.3,38.9],[1.2,39.1],[2.3,39.9]]]}},{"type":"Feature","properties":{"name":"Gran Canaria","kind":"outline","region":"canarias"},"geometry":{"type":"Polygon","coordinates":[[[-15.7,28.0],[-15.3,28.0],[-15.3,28.2],[-15.7,28.2],[-15.7,28.0]]]}},{"type":"Feature","properties":{"name":"Tenerife","kind":"outline","region":"canarias"},"geometry":{"type":"Polygon","coordinates":[[[-16.9,28.0],[-16.1,28.0],[-16.1,28.6],[-16.9,28.6],[-16.9,28.0]]]}},{"type":"Feature","properties":{"name":"Lanzarote","kind":"outline","region":"canarias"},"geometry":{"type":"Polygon","coordinates":[[[-13.9,28.8],[-13.4,28.8],[-13.4,29.3],[-13.9,29.3],[-13.9,28.8]]]}},{"type":"Feature","properties":{"name":"Fuerteventura","kind":"outline","region":"canarias"},"geometry":{"type":"Polygon","coordinates":[[[-14.6,28.0],[-13.8,28.0],[-13.8,28.8],[-14.6,28.8],[-14.6,28.0]]]}},{"type":"Feature","properties":{"name":"Medina de Rioseco","place":"town"},"geometry":{"type":"Point","coordinates":[-5.0428,41.8833]}},{"type":"Feature","properties":{"name":"Íscar","place":"town"},"geometry":{"type":"Point","coordinates":[-4.5339,41.3611]}},{"type":"Feature","properties":{"name":"Olmedo","place":"town"},"geometry":{"type":"Point","coordinates":[-4.6889,41.2881]}},{"type":"Feature","properties":{"name":"Tudela de Duero","place":"town"},"geometry":{"type":"Point","coordinates":[-4.5822,41.5847]}},{"type":"Feature","properties":{"name":"Laguna de Duero","place":"town"},"geometry":{"type":"Point","coordinates":[-4.7233,41.5831]}},{"type":"Feature","properties":{"name":"Simancas","place":"town"},"geometry":{"type":"Point","coordinates":[-4.8269,41.5906]}},{"type":"Feature","properties":{"name":"Cigales","place":"town"},"geometry":{"type":"Point","coordinates":[-4.6992,41.7581]}},{"type":"Feature","properties":{"name":"Boecillo","place":"town"},"geometry":{"type":"Point","coordinates":[-4.7,41.5408]}},{"type":"Feature","properties":{"name":"Arroyo de la Encomienda","place":"town"},"geometry":{"type":"Point","coordinates":[-4.7967,41.6094]}},{"type":"Feature","properties":{"name":"Zaratán","place":"town"},"geometry":{"type":"Point","coordinates":[-4.7842,41.6606]}},{"type":"Feature","properties":{"name":"Astorga","place":"town"},"geometry":{"type":"Point","coordinates":[-6.0536,42.4589]}},{"type":"Feature","properties":{"name":"Benavente","place":"town"},"geometry":{"type":"Point","coordinates":[-5.6783,42.0025]}},{"type":"Feature","properties":{"name":"Toro","place":"town"},"geometry":{"type":"Point","coordinates":[-5.3947,41.5203]}},{"type":"Feature","properties":{"name":"Ciudad Rodrigo","place":"town"},"geometry":{"type":"Point","coordinates":[-6.5339,40.5972]}},{"type":"Feature","properties":{"name":"Béjar","place":"town"},"geometry":{"type":"Point","coordinates":[-5.7633,40.3864]}},{"type":"Feature","properties":{"name":"Haro","place":"town"},"geometry":{"type":"Point","coordinates":[-2.8494,42.5764]}},{"type":"Feature","properties":{"name":"Calahorra","place":"town"},"geometry":{"type":"Point","coordinates":[-1.965,42.3047]}},{"type":"Feature","properties":{"name":"Tudela","place":"town"},"geometry":{"type":"Point","coordinates":[-1.6067,42.0617]}},{"type":"Feature","properties":{"name":"Puertollano","place":"town"},"geometry":{"type":"Point","coordinates":[-4.1073,38.6871]}},{"type":"Feature","properties":{"name":"Mérida","place":"city"},"geometry":{"type":"Point","coordinates":[-6.3437,38.9161]}},{"type":"Feature","properties":{"name":"Plasencia","place":"town"},"geometry":{"type":"Point","coordinates":[-6.09,40.03]}},{"type":"Feature","properties":{"name":"Trujillo","place":"town"},"geometry":{"type":"Point","coordinates":[-5.8814,39.4606]}},{"type":"Feature","properties":{"name":"Ronda","place":"town"},"geometry":{"type":"Point","coordinates":[-5.1672,36.7422]}},{"type":"Feature","properties":{"name":"Antequera","place":"town"},"geometry":{"type":"Point","coordinates":[-4.5611,37.0194]}},{"type":"Feature","properties":{"name":"Úbeda","place":"town"},"geometry":{"type":"Point","coordinates":[-3.3706,38.0131]}},{"type":"Feature","properties":{"name":"Baeza","place":"town"},"geometry":{"type":"Point","coordinates":[-3.4711,37.9936]}},{"type":"Feature","properties":{"name":"Lorca","place":"town"},"geometry":{"type":"Point","coordinates":[-1.7017,37.6711]}},{"type":"Feature","properties":{"name":"El Ejido","place":"town"},"geometry":{"type":"Point","coordinates":[-2.8147,36.7764]}},{"type":"Feature","properties":{"name":"Roquetas de Mar","place":"town"},"geometry":{"type":"Point","coordinates":[-2.6147,36.7642]}},{"type":"Feature","properties":{"name":"Motril","place":"town"},"geometry":{"type":"Point","coordinates":[-3.5206,36.7506]}},{"type":"Feature","properties":{"name":"Alcoy","place":"town"},"geometry":{"type":"Point","coordinates":[-0.474,38.7054]}},{"type":"Feature","properties":{"name":"Gandía","place":"town"},"geometry":{"type":"Point","coordinates":[-0.184,38.968]}},{"type":"Feature","properties":{"name":"Reus","place":"town"},"geometry":{"type":"Point","coordinates":[-1.1067,41.1561]}},{"type":"Feature","properties":{"name":"Figueres","place":"town"},"geometry":{"type":"Point","coordinates":[2.9616,42.2662]}},{"type":"Feature","properties":{"name":"Manresa","place":"town"},"geometry":{"type":"Point","coordinates":[1.827,41.728]}},{"type":"Feature","properties":{"name":"Sabadell","place":"city"},"geometry":{"type":"Point","coordinates":[2.109,41.5433]}},{"type":"Feature","properties":{"name":"Terrassa","place":"city"},"geometry":{"type":"Point","coordinates":[2.0086,41.5631]}},{"type":"Feature","properties":{"name":"L'Hospitalet de Llobregat","place":"city"},"geometry":{"type":"Point","coordinates":[2.0997,41.3597]}},{"type":"Feature","properties":{"name":"Badalona","place":"city"},"geometry":{"type":"Point","coordinates":[2.247,41.45]}},{"type":"Feature","properties":{"name":"Torrelavega","place":"town"},"geometry":{"type":"Point","coordinates":[-4.0478,43.3492]}},{"type":"Feature","properties":{"name":"Avilés","place":"town"},"geometry":{"type":"Point","coordinates":[-5.9248,43.558]}},{"type":"Feature","properties":{"name":"Ferrol","place":"town"},"geometry":{"type":"Point","coordinates":[-8.233,43.4844]}},{"type":"Feature","properties":{"name":"Irun","place":"town"},"geometry":{"type":"Point","coordinates":[-1.7894,43.3389]}},{"type":"Feature","properties":{"name":"Eibar","place":"town"},"geometry":{"type":"Point","coordinates":[-2.4717,43.1847]}},{"type":"Feature","properties":{"name":"Aeropuerto Adolfo Suárez Madrid-Barajas","amenity":"airport","kind":"airport"},"geometry":{"type":"Point","coordinates":[-3.5676,40.4983]}},{"type":"Feature","properties":{"name":"Aeropuerto Josep Tarradellas Barcelona-El Prat","amenity":"airport","kind":"airport"},"geometry":{"type":"Point","coordinates":[2.0833,41.2974]}},{"type":"Feature","properties":{"name":"Aeropuerto de Palma de Mallorca","amenity":"airport","kind":"airport"},"geometry":{"type":"Point","coordinates":[2.7388,39.5517]}},{"type":"Feature","properties":{"name":"Aeropuerto de Málaga-Costa del Sol","amenity":"airport","kind":"airport"},"geometry":{"type":"Point","coordinates":[-4.4991,36.6749]}},{"type":"Feature","properties":{"name":"Aeropuerto de Alicante-Elche","amenity":"airport","kind":"airport"},"geometry":{"type":"Point","coordinates":[-0.5582,38.2822]}},{"type":"Feature","properties":{"name":"Aeropuerto de Gran Canaria","amenity":"airport","kind":"airport"},"geometry":{"type":"Point","coordinates":[-15.3866,27.9319]}},{"type":"Feature","properties":{"name":"Aeropuerto de Tenerife Sur","amenity":"airport","kind":"airport"},"geometry":{"type":"Point","coordinates":[-16.5725,28.0445]}},{"type":"Feature","properties":{"name":"Aeropuerto de Sevilla","amenity":"airport","kind":"airport"},"geometry":{"type":"Point","coordinates":[-5.8931,37.418]}},{"type":"Feature","properties":{"name":"Aeropuerto de Valencia","amenity":"airport","kind":"airport"},"geometry":{"type":"Point","coordinates":[-0.4816,39.4893]}},{"type":"Feature","properties":{"name":"Aeropuerto de Bilbao","amenity":"airport","kind":"airport"},"geometry":{"type":"Point","coordinates":[-2.9106,43.3011]}},{"type":"Feature","properties":{"name":"Aeropuerto de Santiago","amenity":"airport","kind":"airport"},"geometry":{"type":"Point","coordinates":[-8.4151,42.8963]}},{"type":"Feature","properties":{"name":"Aeropuerto de Valladolid","amenity":"airport","kind":"airport"},"geometry":{"type":"Point","coordinates":[-4.8519,41.7061]}},{"type":"Feature","properties":{"name":"Aeropuerto de Zaragoza","amenity":"airport","kind":"airport"},"geometry":{"type":"Point","coordinates":[-1.0416,41.6662]}},{"type":"Feature","properties":{"name":"Aeropuerto de Asturias","amenity":"airport","kind":"airport"},"geometry":{"type":"Point","coordinates":[-6.0346,43.5636]}},{"type":"Feature","properties":{"name":"Aeropuerto de Ibiza","amenity":"airport","kind":"airport"},"geometry":{"type":"Point","coordinates":[1.3731,38.8729]}},{"type":"Feature","properties":{"name":"Puerto de Barcelona","amenity":"ferry_terminal","kind":"port"},"geometry":{"type":"Point","coordinates":[2.1681,41.3508]}},{"type":"Feature","properties":{"name":"Puerto de Valencia","amenity":"ferry_terminal","kind":"port"},"geometry":{"type":"Point","coordinates":[-0.32,39.445]}},{"type":"Feature","properties":{"name":"Puerto de Algeciras","amenity":"ferry_terminal","kind":"port"},"geometry":{"type":"Point","coordinates":[-5.434,36.1408]}},{"type":"Feature","properties":{"name":"Puerto de Bilbao","amenity":"ferry_terminal","kind":"port"},"geometry":{"type":"Point","coordinates":[-3.056,43.352]}},{"type":"Feature","properties":{"name":"Puerto de Las Palmas","amenity":"ferry_terminal","kind":"port"},"geometry":{"type":"Point","coordinates":[-15.41,28.14]}},{"type":"Feature","properties":{"name":"Puerto de Vigo","amenity":"ferry_terminal","kind":"port"},"geometry":{"type":"Point","coordinates":[-8.726,42.232]}},{"type":"Feature","properties":{"name":"Andalucía","kind":"region_label","place":"state"},"geometry":{"type":"Point","coordinates":[-4.5,37.4]}},{"type":"Feature","properties":{"name":"Aragón","kind":"region_label","place":"state"},"geometry":{"type":"Point","coordinates":[-0.9,41.6]}},{"type":"Feature","properties":{"name":"Asturias","kind":"region_label","place":"state"},"geometry":{"type":"Point","coordinates":[-6.0,43.3]}},{"type":"Feature","properties":{"name":"Illes Balears","kind":"region_label","place":"state"},"geometry":{"type":"Point","coordinates":[2.8,39.5]}},{"type":"Feature","properties":{"name":"Canarias","kind":"region_label","place":"state"},"geometry":{"type":"Point","coordinates":[-15.5,28.3]}},{"type":"Feature","properties":{"name":"Cantabria","kind":"region_label","place":"state"},"geometry":{"type":"Point","coordinates":[-4.0,43.2]}},{"type":"Feature","properties":{"name":"Castilla y León","kind":"region_label","place":"state"},"geometry":{"type":"Point","coordinates":[-4.5,41.8]}},{"type":"Feature","properties":{"name":"Castilla-La Mancha","kind":"region_label","place":"state"},"geometry":{"type":"Point","coordinates":[-3.0,39.5]}},{"type":"Feature","properties":{"name":"Cataluña","kind":"region_label","place":"state"},"geometry":{"type":"Point","coordinates":[1.5,41.8]}},{"type":"Feature","properties":{"name":"Comunitat Valenciana","kind":"region_label","place":"state"},"geometry":{"type":"Point","coordinates":[-0.6,39.5]}},{"type":"Feature","properties":{"name":"Extremadura","kind":"region_label","place":"state"},"geometry":{"type":"Point","coordinates":[-6.2,39.2]}},{"type":"Feature","properties":{"name":"Galicia","kind":"region_label","place":"state"},"geometry":{"type":"Point","coordinates":[-8.0,42.8]}},{"type":"Feature","properties":{"name":"Comunidad de Madrid","kind":"region_label","place":"state"},"geometry":{"type":"Point","coordinates":[-3.7,40.4]}},{"type":"Feature","properties":{"name":"Región de Murcia","kind":"region_label","place":"state"},"geometry":{"type":"Point","coordinates":[-1.5,38.0]}},{"type":"Feature","properties":{"name":"Navarra","kind":"region_label","place":"state"},"geometry":{"type":"Point","coordinates":[-1.6,42.7]}},{"type":"Feature","properties":{"name":"País Vasco","kind":"region_label","place":"state"},"geometry":{"type":"Point","coordinates":[-2.6,43.0]}},{"type":"Feature","properties":{"name":"La Rioja","kind":"region_label","place":"state"},"geometry":{"type":"Point","coordinates":[-2.5,42.3]}},{"type":"Feature","properties":{"name":"Duero (esquema)","kind":"waterway_schema","waterway":"river"},"geometry":{"type":"LineString","coordinates":[[-6.96,41.15],[-5.75,41.5],[-4.72,41.65],[-3.69,41.65],[-2.47,41.76],[-1.0,41.65],[0.5,41.15]]}},{"type":"Feature","properties":{"name":"Ebro (esquema)","kind":"waterway_schema","waterway":"river"},"geometry":{"type":"LineString","coordinates":[[-4.05,43.0],[-3.0,42.5],[-2.45,42.46],[-1.64,42.81],[-0.89,41.65],[0.52,41.12],[0.85,40.82]]}},{"type":"Feature","properties":{"name":"Tajo (esquema)","kind":"waterway_schema","waterway":"river"},"geometry":{"type":"LineString","coordinates":[[-6.96,39.7],[-6.37,39.47],[-4.03,39.86],[-3.7,40.03],[-3.0,39.9],[-1.0,39.5],[0.0,39.0]]}},{"type":"Feature","properties":{"name":"Guadalquivir (esquema)","kind":"waterway_schema","waterway":"river"},"geometry":{"type":"LineString","coordinates":[[-4.0,38.0],[-4.78,37.89],[-5.98,37.39],[-6.0,37.2],[-6.35,36.8]]}},{"type":"Feature","properties":{"name":"A-1 Madrid–Burgos–Irún (esquema)","kind":"motorway_schema","ref":"A-1","highway":"motorway"},"geometry":{"type":"LineString","coordinates":[[-3.69,40.48],[-3.69,40.95],[-3.7,41.15],[-3.69,41.65],[-3.7,42.34],[-2.93,42.69],[-2.67,42.85],[-1.98,43.22],[-1.79,43.34]]}},{"type":"Feature","properties":{"name":"A-2 Madrid–Zaragoza–Barcelona (esquema)","kind":"motorway_schema","ref":"A-2","highway":"motorway"},"geometry":{"type":"LineString","coordinates":[[-3.6,40.45],[-3.17,40.63],[-2.16,41.13],[-0.89,41.65],[0.62,41.62],[1.83,41.73],[2.1,41.55]]}},{"type":"Feature","properties":{"name":"A-3 Madrid–Valencia (esquema)","kind":"motorway_schema","ref":"A-3","highway":"motorway"},"geometry":{"type":"LineString","coordinates":[[-3.6,40.4],[-3.0,39.9],[-1.86,39.0],[-0.8,39.3],[-0.38,39.47]]}},{"type":"Feature","properties":{"name":"A-4 Madrid–Córdoba–Sevilla–Cádiz (esquema)","kind":"motorway_schema","ref":"A-4","highway":"motorway"},"geometry":{"type":"LineString","coordinates":[[-3.68,40.3],[-3.93,39.86],[-4.78,37.89],[-5.98,37.39],[-6.0,36.7],[-6.29,36.53]]}},{"type":"Feature","properties":{"name":"A-5 Madrid–Badajoz (esquema)","kind":"motorway_schema","ref":"A-5","highway":"motorway"},"geometry":{"type":"LineString","coordinates":[[-3.8,40.4],[-4.5,40.0],[-5.66,40.0],[-6.37,39.47],[-6.97,38.88]]}},{"type":"Feature","properties":{"name":"A-6 Madrid–Valladolid–A Coruña (esquema)","kind":"motorway_schema","ref":"A-6","highway":"motorway"},"geometry":{"type":"LineString","coordinates":[[-3.8,40.48],[-4.0,40.7],[-4.72,41.65],[-5.57,42.6],[-6.05,42.46],[-7.56,43.01],[-8.4,43.35]]}},{"type":"Feature","properties":{"name":"A-7 Mediterráneo (esquema)","kind":"motorway_schema","ref":"A-7","highway":"motorway"},"geometry":{"type":"LineString","coordinates":[[2.17,41.39],[1.0,41.1],[-0.38,39.47],[-0.48,38.35],[-0.8,37.6],[-3.6,36.72],[-4.42,36.72],[-5.0,36.5]]}},{"type":"Feature","properties":{"name":"A-8 Cantábrico (esquema)","kind":"motorway_schema","ref":"A-8","highway":"motorway"},"geometry":{"type":"LineString","coordinates":[[-1.79,43.34],[-2.93,43.26],[-3.81,43.46],[-5.66,43.54],[-5.85,43.36],[-7.56,43.35],[-8.4,43.37]]}},{"type":"Feature","properties":{"name":"AP-7 / Med. norte (esquema)","kind":"motorway_schema","ref":"AP-7","highway":"motorway"},"geometry":{"type":"LineString","coordinates":[[3.0,42.3],[2.82,41.98],[2.17,41.39],[1.25,41.12],[0.5,40.9]]}},{"type":"Feature","properties":{"name":"A-66 Ruta de la Plata (esquema)","kind":"motorway_schema","ref":"A-66","highway":"motorway"},"geometry":{"type":"LineString","coordinates":[[-5.85,43.36],[-5.57,42.6],[-5.67,41.5],[-5.66,40.97],[-6.34,38.92],[-5.98,37.39]]}},{"type":"Feature","properties":{"name":"A-62 Burgos–Portugal vía Va (esquema)","kind":"motorway_schema","ref":"A-62","highway":"motorway"},"geometry":{"type":"LineString","coordinates":[[-3.7,42.34],[-4.53,42.01],[-4.72,41.65],[-5.66,40.97],[-6.53,40.6]]}}]}